[{"OBJECT_NAME":"STARLINK-31888","OBJECT_ID":"2024-093G","EPOCH":"2026-03-09T11:06:43.350336","MEAN_MOTION":15.27559291,"ECCENTRICITY":0.00012047,"INCLINATION":43.0024,"RA_OF_ASC_NODE":209.929,"ARG_OF_PERICENTER":265.3673,"MEAN_ANOMALY":94.7041,"EPHEMERIS_TYPE":0,"CLASSIFICATION_TYPE":"U","NORAD_CAT_ID":59788,"ELEMENT_SET_NO":999,"REV_AT_EPOCH":10266,"BSTAR":-0.00011368532,"MEAN_MOTION_DOT":-3.387e-5,"MEAN_MOTION_DDOT":0},{"OBJECT_NAME":"FLOCK 4G-5","OBJECT_ID":"2025-009BG","EPOCH":"2026-03-09T10:57:11.608704","MEAN_MOTION":15.28679529,"ECCENTRICITY":0.00020946,"INCLINATION":97.4058,"RA_OF_ASC_NODE":151.2478,"ARG_OF_PERICENTER":314.5072,"MEAN_ANOMALY":45.5996,"EPHEMERIS_TYPE":0,"CLASSIFICATION_TYPE":"U","NORAD_CAT_ID":62663,"ELEMENT_SET_NO":999,"REV_AT_EPOCH":6369,"BSTAR":0.00040688068,"MEAN_MOTION_DOT":0.00011278,"MEAN_MOTION_DDOT":0}]
